FENGYUN 1C DEB          
1 31215U 99025BKV 17345.48618107  .00000392  00000-0  19790-3 0  9995
2 31215  98.8858  82.5034 0072531  82.6684 278.2728 14.20513440553962
